IRIDIUM 159             
1 43578U 18061K   24066.03058109  .00000105  00000+0  30494-4 0  9996
2 43578  86.3953  44.8778 0002218  86.6051 273.5399 14.34216973293967
IRIDIUM 180             
1 43922U 19002A   24065.82078186  .00000441  00000+0  15034-3 0  9993
2 43922  86.4022 341.8838 0002161  83.1567 276.9874 14.34217479269584
IRIDIUM 176             
1 43923U 19002B   24065.80681051  .00001670  00000+0  26062-3 0  9991
2 43923  86.6149 341.9178 0002638  86.2040 273.9479 14.72292303276637
IRIDIUM 168             
1 43924U 19002C   24065.81443098  .00000261  00000+0  86285-4 0  9999
2 43924  86.4021 341.9399 0002124  82.6117 277.5320 14.34218918269528
IRIDIUM 173             
1 43925U 19002D   24065.80174075  .00000386  00000+0  13070-3 0  9994
2 43925  86.4021 341.8685 0002114  83.6942 276.4495 14.34216748269511
IRIDIUM 169             
1 43926U 19002E   24065.90460260  .00000622  00000+0  19687-3 0  9993
2 43926  86.4272  13.4131 0002192 154.2095 205.9213 14.38612843270425
IRIDIUM 172             
1 43927U 19002F   24065.79540361  .00000329  00000+0  11041-3 0  9992
2 43927  86.4021 341.8766 0002258  83.8070 276.3383 14.34219389269515
IRIDIUM 175             
1 43928U 19002G   24065.80099129  .00001489  00000+0  23203-3 0  9997
2 43928  86.1532 320.9159 0002262  85.6931 274.4543 14.72276457276623
